{"generatedAt":"2026-04-21T08:02:33.943925Z","satellites":[{"name":"ONEWEB-0418","tle1":"1 50493U 21132AA  26110.90166667 -.00000338  00000+0 -89012-3 0  9999","tle2":"2 50493  87.9231 346.8458 0001354  95.7724 264.3562 13.18684964214115"},{"name":"ONEWEB-0419","tle1":"1 50494U 21132AB  26110.91994414 -.00000213  00000+0 -57213-3 0  9990","tle2":"2 50494  87.9219 346.8437 0001524  78.6481 281.4823 13.18685051214037"},{"name":"ONEWEB-0420","tle1":"1 50495U 21132AC  26110.88530917 -.00000024  00000+0 -93280-4 0  9996","tle2":"2 50495  87.9210 346.8588 0001948  77.8589 282.2761 13.18684958214020"},{"name":"ONEWEB-0421","tle1":"1 50496U 21132AD  26110.95460321  .00000054  00000+0  10432-3 0  9994","tle2":"2 50496  87.9212 346.8400 0001947  92.5776 267.5580 13.18685526214079"},{"name":"ONEWEB-0424","tle1":"1 50497U 21132AE  26110.61150073 -.00000056  00000+0 -17398-3 0  9990","tle2":"2 50497  87.9216 346.9040 0001539  73.3620 286.7681 13.18685598214059"},{"name":"ONEWEB-0426","tle1":"1 50498U 21132AF  26110.95125156 -.00000041  00000+0 -13560-3 0  9993","tle2":"2 50498  87.9213 346.8285 0001754 106.4156 253.7169 13.18690000214046"},{"name":"ONEWEB-0427","tle1":"1 50499U 21132AG  26110.91335692  .00000100  00000+0  22154-3 0  9991","tle2":"2 50499  87.9216 346.8231 0001597  87.9717 272.1598 13.18685078214064"},{"name":"ONEWEB-0429","tle1":"1 50500U 21132AH  26110.90016633 -.00000018  00000+0 -77251-4 0  9993","tle2":"2 50500  87.9211 346.8548 0001898  79.6368 280.4979 13.18686865214034"},{"name":"ONEWEB-0430","tle1":"1 50501U 21132AJ  26110.88860233  .00000067  00000+0  13707-3 0  9991","tle2":"2 50501  87.9208 346.8553 0001790  74.3263 285.8066 13.18689597214079"},{"name":"ONEWEB-0432","tle1":"1 50502U 21132AK  26110.92309517  .00000058  00000+0  11384-3 0  9999","tle2":"2 50502  87.9215 346.8192 0001049  76.0177 284.1072 13.18647608214039"},{"name":"ONEWEB-0440","tle1":"1 50503U 21132AL  26110.90841370  .00000074  00000+0  15591-3 0  9998","tle2":"2 50503  87.9219 346.8431 0002149  85.4982 274.6395 13.18686863214027"},{"name":"ONEWEB-0450","tle1":"1 50504U 21132AM  26110.90195048  .00000070  00000+0  14520-3 0  9990","tle2":"2 50504  87.9203 346.8554 0001852  76.6119 283.5220 13.18684728214058"},{"name":"ONEWEB-0410","tle1":"1 51622U 22012A   26110.96140356  .00000063  00000+0  13031-3 0  9996","tle2":"2 51622  87.9193  17.2205 0001414 126.8804 233.2457 13.17647636206166"},{"name":"ONEWEB-0411","tle1":"1 51623U 22012B   26110.82124291  .00000492  00000+0  13735-2 0  9998","tle2":"2 51623  87.8841  47.6771 0001951  62.1507 297.9818 13.10369873201776"},{"name":"ONEWEB-0415","tle1":"1 51624U 22012C   26110.81791888  .00000608  00000+0  17051-2 0  9994","tle2":"2 51624  87.8842  47.6800 0001824  71.4698 288.6628 13.10370787201776"},{"name":"ONEWEB-0416","tle1":"1 51625U 22012D   26110.82953294  .00000100  00000+0  25040-3 0  9992","tle2":"2 51625  87.8840  47.6974 0001548  70.8896 289.2399 13.10368927201813"},{"name":"ONEWEB-0422","tle1":"1 51626U 22012E   26110.97153927 -.00000046  00000+0 -15252-3 0  9999","tle2":"2 51626  87.9192  17.2205 0002427  75.9757 284.1644 13.17648438206271"},{"name":"ONEWEB-0423","tle1":"1 51627U 22012F   26110.96477543  .00000146  00000+0  34232-3 0  9990","tle2":"2 51627  87.9190  17.2307 0001986  81.2848 278.8508 13.17647744206169"},{"name":"ONEWEB-0425","tle1":"1 51628U 22012G   26110.83948014 -.00000437  00000+0 -12873-2 0  9994","tle2":"2 51628  87.8849  47.6762 0001792  89.8927 270.2406 13.10369401201813"},{"name":"ONEWEB-0428","tle1":"1 51629U 22012H   26110.81958324  .00000539  00000+0  15066-2 0  9996","tle2":"2 51629  87.8842  47.6894 0001939  79.3588 280.7758 13.10370566201778"},{"name":"ONEWEB-0431","tle1":"1 51630U 22012J   26110.86591427 -.00000189  00000+0 -57840-3 0  9990","tle2":"2 51630  87.8858  47.6697 0002099  61.0437 299.0901 13.10376446201830"},{"name":"ONEWEB-0434","tle1":"1 51631U 22012K   26110.84293218 -.00000562  00000+0 -16453-2 0  9995","tle2":"2 51631  87.8813  47.6986 0001770  99.3585 260.7742 13.10369777201811"},{"name":"ONEWEB-0435","tle1":"1 51632U 22012L   26110.85108888 -.00000683  00000+0 -19927-2 0  9998","tle2":"2 51632  87.8864  47.6872 0002149  76.7089 283.4278 13.10371699201802"},{"name":"ONEWEB-0436","tle1":"1 51633U 22012M   26110.19698200  .00000097  00000+0  21564-3 0  9996","tle2":"2 51633  87.9193  17.3622 0002002  75.4893 284.6460 13.17650672206048"},{"name":"ONEWEB-0438","tle1":"1 51634U 22012N   26110.83450379 -.00000231  00000+0 -69742-3 0  9993","tle2":"2 51634  87.8834  47.6924 0001806  84.0108 276.1226 13.10368564201834"},{"name":"ONEWEB-0439","tle1":"1 51635U 22012P   26110.83782798 -.00000315  00000+0 -93981-3 0  9992","tle2":"2 51635  87.8840  47.6803 0001981  82.3102 277.8251 13.10370108201818"},{"name":"ONEWEB-0442","tle1":"1 51636U 22012Q   26110.64500057 -.00000072  00000+0 -21912-3 0  9993","tle2":"2 51636  87.9185  17.3095 0001451  95.6163 264.5134 13.17647738206096"},{"name":"ONEWEB-0443","tle1":"1 51637U 22012R   26110.96815115  .00000033  00000+0  52791-4 0  9998","tle2":"2 51637  87.9190  17.2474 0002100  87.9506 272.1866 13.17647574206185"},{"name":"ONEWEB-0444","tle1":"1 51638U 22012S   26110.82788261  .00001490  00000+0  42307-2 0  9993","tle2":"2 51638  87.8833  47.6809 0002052  83.5763 276.5598 13.10374819201829"},{"name":"ONEWEB-0445","tle1":"1 51639U 22012T   26110.84945409 -.00000685  00000+0 -19978-2 0  9990","tle2":"2 51639  87.8865  47.6595 0001761  72.6764 287.4556 13.10373656201837"},{"name":"ONEWEB-0446","tle1":"1 51640U 22012U   26110.82621795  .00000142  00000+0  37127-3 0  9992","tle2":"2 51640  87.8853  47.6977 0001790  77.2390 282.8937 13.10369614201817"},{"name":"ONEWEB-0448","tle1":"1 51641U 22012V   26110.83119879 -.00000056  00000+0 -19632-3 0  9996","tle2":"2 51641  87.8857  47.6943 0002026  81.5654 278.5702 13.10371991201788"},{"name":"ONEWEB-0449","tle1":"1 51642U 22012W   26110.83616287 -.00000313  00000+0 -93197-3 0  9996","tle2":"2 51642  87.8847  47.6757 0001805  93.5787 266.5546 13.10368753201791"},{"name":"ONEWEB-0451","tle1":"1 51643U 22012X   26110.64923380 -.00000029  00000+0 -10665-3 0  9994","tle2":"2 51643  87.9194  17.2684 0001749  86.3408 273.7923 13.17649233206085"},{"name":"ONEWEB-0452","tle1":"1 51644U 22012Y   26110.64753008 -.00000008  00000+0 -53534-4 0  9993","tle2":"2 51644  87.9185  17.3110 0001922  88.0785 272.0567 13.17649292206093"},{"name":"ONEWEB-0456","tle1":"1 51646U 22012AA  26110.84612205 -.00000580  00000+0 -16990-2 0  9998","tle2":"2 51646  87.8863  47.6564 0002044  78.0490 282.0866 13.10371238201839"},{"name":"ONEWEB-0457","tle1":"1 51647U 22012AB  26110.82289943  .00000417  00000+0  11586-2 0  9999","tle2":"2 51647  87.8838  47.6858 0001470  77.6050 282.5242 13.10369525201836"},{"name":"ONEWEB-0458","tle1":"1 51648U 22012AC  26110.84446321 -.00000595  00000+0 -17413-2 0  9991","tle2":"2 51648  87.8845  47.6645 0001941  84.2003 275.9346 13.10371096201796"},{"name":"ONEWEB-0461","tle1":"1 51649U 22012AD  26110.97321154  .00000074  00000+0  15784-3 0  9992","tle2":"2 51649  87.9196  17.2188 0001724  78.4924 281.6401 13.17647468206357"},{"name":"ONEWEB-0463","tle1":"1 51650U 22012AE  26110.49904344  .00000064  00000+0  13166-3 0  9990","tle2":"2 51650  87.9184  17.3412 0001674  76.7298 283.4020 13.17648757206074"},{"name":"ONEWEB-0464","tle1":"1 51651U 22012AF  26110.84114399 -.00000446  00000+0 -13140-2 0  9990","tle2":"2 51651  87.8832  47.6915 0002170  81.0965 279.0408 13.10369921201814"},{"name":"ONEWEB-0468","tle1":"1 51652U 22012AG  26110.84778175 -.00000824  00000+0 -23971-2 0  9992","tle2":"2 51652  87.8888  47.6816 0002213  79.7218 280.4159 13.10370846201793"},{"name":"ONEWEB-0473","tle1":"1 51653U 22012AH  26110.83284745  .00000022  00000+0  27458-4 0  9991","tle2":"2 51653  87.8846  47.6894 0002058  83.6326 276.5035 13.10369341201792"},{"name":"ONEWEB-0474","tle1":"1 51654U 22012AJ  26110.82456282  .00000293  00000+0  80413-3 0  9997","tle2":"2 51654  87.8839  47.6694 0002233  82.4360 277.7021 13.10368773201788"},{"name":"ONEWEB-0475","tle1":"1 51655U 22012AK  26110.66272638 -.00000051  00000+0 -16385-3 0  9992","tle2":"2 51655  87.9184  17.3006 0002418  88.4621 271.6788 13.17649295206118"},{"name":"ONEWEB-0490","tle1":"1 54113U 22138A   26110.81708246  .00000008  00000+0 -13365-4 0  9996","tle2":"2 54113  87.9165 316.4052 0001954  83.5614 276.5741 13.19723882169269"},{"name":"ONEWEB-0492","tle1":"1 54114U 22138B   26110.84235512  .00000071  00000+0  14548-3 0  9993","tle2":"2 54114  87.9156 316.4060 0001824  80.0390 280.0949 13.19724002169274"},{"name":"ONEWEB-0495","tle1":"1 54115U 22138C   26110.82024292  .00000051  00000+0  93983-4 0  9992","tle2":"2 54115  87.9161 316.4122 0002380  78.1600 281.9799 13.19724123169255"},{"name":"ONEWEB-0497","tle1":"1 54116U 22138D   26110.60542522 -.00000020  00000+0 -82652-4 0  9999","tle2":"2 54116  87.9159 316.4457 0001845  84.8315 275.3028 13.19723733169210"},{"name":"ONEWEB-0499","tle1":"1 54117U 22138E   26110.81630521  .00000083  00000+0  17422-3 0  9999","tle2":"2 54117  87.9162 316.4149 0001976  89.7066 270.4294 13.19724505169258"},{"name":"ONEWEB-0500","tle1":"1 54118U 22138F   26110.81866155 -.00001415  00000+0 -35659-2 0  9997","tle2":"2 54118  87.9166 316.4036 0001960  82.6228 277.5127 13.19730889169269"},{"name":"ONEWEB-0501","tle1":"1 54119U 22138G   26110.84866845  .00000067  00000+0  13508-3 0  9997","tle2":"2 54119  87.9162 316.3980 0002085  83.1744 276.9626 13.19723400169247"},{"name":"ONEWEB-0502","tle1":"1 54120U 22138H   26110.83445390 -.00000003  00000+0 -40540-4 0  9995","tle2":"2 54120  87.9171 316.3890 0002041  87.2697 272.8670 13.19723840169267"},{"name":"ONEWEB-0503","tle1":"1 54121U 22138J   26110.82339953  .00000087  00000+0  18574-3 0  9993","tle2":"2 54121  87.9173 316.3956 0001894  95.2132 264.9217 13.19724221169253"}]}